{
  "type": "FeatureCollection",
  "features": [
    {
      "type": "Feature",
      "properties": {
        "norad_id": 38725,
        "name": "FENGYUN 1C DEB",
        "group": "fengyun-1c-debris",
        "lat": -27.815502050332555,
        "lon": 130.81652069779972,
        "alt_km": 764.658989177985,
        "timestamp": "2025-12-26T07:29:18.745679+00:00",
        "meta_object_name": "FENGYUN 1C DEB",
        "meta_object_id": "1999-025ETS",
        "meta_epoch": "2025-12-24T14:01:00.000192",
        "meta_mean_motion": 14.43026373,
        "meta_eccentricity": 0.00354571,
        "meta_inclination": 98.871,
        "meta_ra_of_asc_node": 124.2922,
        "meta_arg_of_pericenter": 222.3443,
        "meta_mean_anomaly": 137.5008,
        "meta_ephemeris_type": 0,
        "meta_classification_type": "U",
        "meta_norad_cat_id": 38725,
        "meta_element_set_no": 999,
        "meta_rev_at_epoch": 73523,
        "meta_bstar": 0.0028859508,
        "meta_mean_motion_dot": 9.707e-05,
        "meta_mean_motion_ddot": 0,
        "tle_line1": "1 38725U 99025ETS 25358.58402778  .00009707  00000+0  28860-2 0  9992",
        "tle_line2": "2 38725  98.8710 124.2922 0035457 222.3443 137.5008 14.43026373735233"
      },
      "geometry": {
        "type": "Point",
        "coordinates": [
          130.81652069779972,
          -27.815502050332555
        ]
      }
    },
    {
      "type": "Feature",
      "properties": {
        "norad_id": 38726,
        "name": "FENGYUN 1C DEB",
        "group": "fengyun-1c-debris",
        "lat": 49.35974968512735,
        "lon": 16.015772537811454,
        "alt_km": 532.3066069984416,
        "timestamp": "2025-12-26T07:29:18.745689+00:00",
        "meta_object_name": "FENGYUN 1C DEB",
        "meta_object_id": "1999-025ETT",
        "meta_epoch": "2025-12-18T07:44:42.644256",
        "meta_mean_motion": 15.04018095,
        "meta_eccentricity": 0.00236822,
        "meta_inclination": 99.1359,
        "meta_ra_of_asc_node": 17.3874,
        "meta_arg_of_pericenter": 108.0917,
        "meta_mean_anomaly": 252.2886,
        "meta_ephemeris_type": 0,
        "meta_classification_type": "U",
        "meta_norad_cat_id": 38726,
        "meta_element_set_no": 999,
        "meta_rev_at_epoch": 69939,
        "meta_bstar": 0.0056393313,
        "meta_mean_motion_dot": 0.00079186,
        "meta_mean_motion_ddot": 0,
        "tle_line1": "1 38726U 99025ETT 25352.32271579  .00079186  00000+0  56393-2 0  9992",
        "tle_line2": "2 38726  99.1359  17.3874 0023682 108.0917 252.2886 15.04018095699393"
      },
      "geometry": {
        "type": "Point",
        "coordinates": [
          16.015772537811454,
          49.35974968512735
        ]
      }
    },
    {
      "type": "Feature",
      "properties": {
        "norad_id": 38728,
        "name": "FENGYUN 1C DEB",
        "group": "fengyun-1c-debris",
        "lat": 47.123771405015006,
        "lon": 179.61484602864124,
        "alt_km": 679.3623626728277,
        "timestamp": "2025-12-26T07:29:18.745700+00:00",
        "meta_object_name": "FENGYUN 1C DEB",
        "meta_object_id": "1999-025ETV",
        "meta_epoch": "2025-12-25T05:03:00.154080",
        "meta_mean_motion": 14.70785442,
        "meta_eccentricity": 0.0074781,
        "meta_inclination": 99.2633,
        "meta_ra_of_asc_node": 348.24,
        "meta_arg_of_pericenter": 16.545,
        "meta_mean_anomaly": 45.2221,
        "meta_ephemeris_type": 0,
        "meta_classification_type": "U",
        "meta_norad_cat_id": 38728,
        "meta_element_set_no": 999,
        "meta_rev_at_epoch": 65794,
        "meta_bstar": 0.0015327,
        "meta_mean_motion_dot": 9.718e-05,
        "meta_mean_motion_ddot": 0,
        "tle_line1": "1 38728U 99025ETV 25359.21041845  .00009718  00000+0  15327-2 0  9996",
        "tle_line2": "2 38728  99.2633 348.2400 0074781  16.5450  45.2221 14.70785442657940"
      },
      "geometry": {
        "type": "Point",
        "coordinates": [
          179.61484602864124,
          47.123771405015006
        ]
      }
    },
    {
      "type": "Feature",
      "properties": {
        "norad_id": 38789,
        "name": "FENGYUN 1C DEB",
        "group": "fengyun-1c-debris",
        "lat": -58.67889560391643,
        "lon": -98.1611173888574,
        "alt_km": 639.3899689679574,
        "timestamp": "2025-12-26T07:29:18.745710+00:00",
        "meta_object_name": "FENGYUN 1C DEB",
        "meta_object_id": "1999-025EUD",
        "meta_epoch": "2025-12-16T11:04:27.892416",
        "meta_mean_motion": 14.45831603,
        "meta_eccentricity": 0.02075268,
        "meta_inclination": 98.8566,
        "meta_ra_of_asc_node": 236.7044,
        "meta_arg_of_pericenter": 14.1855,
        "meta_mean_anomaly": 164.1034,
        "meta_ephemeris_type": 0,
        "meta_classification_type": "U",
        "meta_norad_cat_id": 38789,
        "meta_element_set_no": 999,
        "meta_rev_at_epoch": 61899,
        "meta_bstar": 0.00050950207,
        "meta_mean_motion_dot": 2.303e-05,
        "meta_mean_motion_ddot": 0,
        "tle_line1": "1 38789U 99025EUD 25350.46143394  .00002303  00000+0  50950-3 0  9998",
        "tle_line2": "2 38789  98.8566 236.7044 0207526  14.1855 164.1034 14.45831603618998"
      },
      "geometry": {
        "type": "Point",
        "coordinates": [
          -98.1611173888574,
          -58.67889560391643
        ]
      }
    },
    {
      "type": "Feature",
      "properties": {
        "norad_id": 38795,
        "name": "FENGYUN 1C DEB",
        "group": "fengyun-1c-debris",
        "lat": 10.292662256798844,
        "lon": -157.20760071940649,
        "alt_km": 906.9968036747696,
        "timestamp": "2025-12-26T07:29:18.745720+00:00",
        "meta_object_name": "FENGYUN 1C DEB",
        "meta_object_id": "1999-025EUK",
        "meta_epoch": "2025-12-19T08:28:58.853280",
        "meta_mean_motion": 13.29929799,
        "meta_eccentricity": 0.050261,
        "meta_inclination": 98.6991,
        "meta_ra_of_asc_node": 15.2992,
        "meta_arg_of_pericenter": 239.3725,
        "meta_mean_anomaly": 115.6931,
        "meta_ephemeris_type": 0,
        "meta_classification_type": "U",
        "meta_norad_cat_id": 38795,
        "meta_element_set_no": 999,
        "meta_rev_at_epoch": 78600,
        "meta_bstar": 0.0020267,
        "meta_mean_motion_dot": 1.866e-05,
        "meta_mean_motion_ddot": 0,
        "tle_line1": "1 38795U 99025EUK 25353.35345895  .00001866  00000+0  20267-2 0  9996",
        "tle_line2": "2 38795  98.6991  15.2992 0502610 239.3725 115.6931 13.29929799786006"
      },
      "geometry": {
        "type": "Point",
        "coordinates": [
          -157.20760071940649,
          10.292662256798844
        ]
      }
    },
    {
      "type": "Feature",
      "properties": {
        "norad_id": 38797,
        "name": "FENGYUN 1C DEB",
        "group": "fengyun-1c-debris",
        "lat": 80.02018147754963,
        "lon": 144.59019271108843,
        "alt_km": 1029.011089455732,
        "timestamp": "2025-12-26T07:29:18.745730+00:00",
        "meta_object_name": "FENGYUN 1C DEB",
        "meta_object_id": "1999-025EUM",
        "meta_epoch": "2025-12-21T10:37:18.137856",
        "meta_mean_motion": 13.61613976,
        "meta_eccentricity": 0.02449187,
        "meta_inclination": 99.4843,
        "meta_ra_of_asc_node": 248.0555,
        "meta_arg_of_pericenter": 199.0138,
        "meta_mean_anomaly": 160.1737,
        "meta_ephemeris_type": 0,
        "meta_classification_type": "U",
        "meta_norad_cat_id": 38797,
        "meta_element_set_no": 999,
        "meta_rev_at_epoch": 59401,
        "meta_bstar": 0.00019998345,
        "meta_mean_motion_dot": 1.44e-06,
        "meta_mean_motion_ddot": 0,
        "tle_line1": "1 38797U 99025EUM 25355.44257104  .00000144  00000+0  19998-3 0  9993",
        "tle_line2": "2 38797  99.4843 248.0555 0244918 199.0138 160.1737 13.61613976594018"
      },
      "geometry": {
        "type": "Point",
        "coordinates": [
          144.59019271108843,
          80.02018147754963
        ]
      }
    },
    {
      "type": "Feature",
      "properties": {
        "norad_id": 38799,
        "name": "FENGYUN 1C DEB",
        "group": "fengyun-1c-debris",
        "lat": 39.36445235158957,
        "lon": 68.74880520755944,
        "alt_km": 726.8135719381062,
        "timestamp": "2025-12-26T07:29:18.745740+00:00",
        "meta_object_name": "FENGYUN 1C DEB",
        "meta_object_id": "1999-025EUP",
        "meta_epoch": "2025-12-23T11:21:05.361408",
        "meta_mean_motion": 14.48820928,
        "meta_eccentricity": 0.01632234,
        "meta_inclination": 98.4043,
        "meta_ra_of_asc_node": 72.8877,
        "meta_arg_of_pericenter": 317.4693,
        "meta_mean_anomaly": 41.395,
        "meta_ephemeris_type": 0,
        "meta_classification_type": "U",
        "meta_norad_cat_id": 38799,
        "meta_element_set_no": 999,
        "meta_rev_at_epoch": 64194,
        "meta_bstar": 0.00093364434,
        "meta_mean_motion_dot": 4.126e-05,
        "meta_mean_motion_ddot": 0,
        "tle_line1": "1 38799U 99025EUP 25357.47297872  .00004126  00000+0  93364-3 0  9999",
        "tle_line2": "2 38799  98.4043  72.8877 0163223 317.4693  41.3950 14.48820928641947"
      },
      "geometry": {
        "type": "Point",
        "coordinates": [
          68.74880520755944,
          39.36445235158957
        ]
      }
    }
  ]
}